ION SCV-008             
1 55051U 23001AU  26068.82429008  .00008336  00000+0  31423-3 0  9992
2 55051  97.5676 163.6060 0015192   8.5420 351.6074 15.27226640176169
STARLINK-35869          
1 66353U 25254F   26068.70856174  .00024403  00000+0  83328-3 0  9990
2 66353  53.1608 232.0034 0001024  79.2346 280.8770 15.30203013 18986
