[{"OBJECT_NAME":"ION SCV-008","OBJECT_ID":"2023-001AU","EPOCH":"2026-03-09T19:46:58.662912","MEAN_MOTION":15.2722664,"ECCENTRICITY":0.00151921,"INCLINATION":97.5676,"RA_OF_ASC_NODE":163.606,"ARG_OF_PERICENTER":8.542,"MEAN_ANOMALY":351.6074,"EPHEMERIS_TYPE":0,"CLASSIFICATION_TYPE":"U","NORAD_CAT_ID":55051,"ELEMENT_SET_NO":999,"REV_AT_EPOCH":17616,"BSTAR":0.00031422806,"MEAN_MOTION_DOT":8.336e-5,"MEAN_MOTION_DDOT":0},{"OBJECT_NAME":"STARLINK-35869","OBJECT_ID":"2025-254F","EPOCH":"2026-03-09T17:00:19.734336","MEAN_MOTION":15.30203013,"ECCENTRICITY":0.00010242,"INCLINATION":53.1608,"RA_OF_ASC_NODE":232.0034,"ARG_OF_PERICENTER":79.2346,"MEAN_ANOMALY":280.877,"EPHEMERIS_TYPE":0,"CLASSIFICATION_TYPE":"U","NORAD_CAT_ID":66353,"ELEMENT_SET_NO":999,"REV_AT_EPOCH":1898,"BSTAR":0.00083327588,"MEAN_MOTION_DOT":0.00024403,"MEAN_MOTION_DDOT":0}]
